CCSDS_OMM_VERS = 2.0
CREATION_DATE  = 
ORIGINATOR     = 

OBJECT_NAME    = AQUA
OBJECT_ID      = 2002-022A
CENTER_NAME    = EARTH
REF_FRAME      = TEME
TIME_SYSTEM    = UTC
MEAN_ELEMENT_THEORY = SGP/SGP4

EPOCH          = 2026-03-13T22:16:56.878176
MEAN_MOTION    = 14.61988253
ECCENTRICITY   = .00005914
INCLINATION    = 98.4180
RA_OF_ASC_NODE = 40.3707
ARG_OF_PERICENTER = 96.8971
MEAN_ANOMALY   = 327.1426

EPHEMERIS_TYPE = 0
CLASSIFICATION_TYPE = U
NORAD_CAT_ID   = 27424
ELEMENT_SET_NO = 999
REV_AT_EPOCH   = 26935
BSTAR          = .24259677E-3
MEAN_MOTION_DOT = .1167E-4
MEAN_MOTION_DDOT = 0

CCSDS_OMM_VERS = 2.0
CREATION_DATE  = 
ORIGINATOR     = 

OBJECT_NAME    = CZ-4B R/B
OBJECT_ID      = 2002-024C
CENTER_NAME    = EARTH
REF_FRAME      = TEME
TIME_SYSTEM    = UTC
MEAN_ELEMENT_THEORY = SGP/SGP4

EPOCH          = 2026-03-13T21:56:25.311840
MEAN_MOTION    = 14.14548492
ECCENTRICITY   = .00502782
INCLINATION    = 98.8830
RA_OF_ASC_NODE = 126.2993
ARG_OF_PERICENTER = 12.2752
MEAN_ANOMALY   = 160.4440

EPHEMERIS_TYPE = 0
CLASSIFICATION_TYPE = U
NORAD_CAT_ID   = 27432
ELEMENT_SET_NO = 999
REV_AT_EPOCH   = 22983
BSTAR          = .48626056E-4
MEAN_MOTION_DOT = .5E-6
MEAN_MOTION_DDOT = 0

CCSDS_OMM_VERS = 2.0
CREATION_DATE  = 
ORIGINATOR     = 

OBJECT_NAME    = MIDORI II (ADEOS-II)
OBJECT_ID      = 2002-056A
CENTER_NAME    = EARTH
REF_FRAME      = TEME
TIME_SYSTEM    = UTC
MEAN_ELEMENT_THEORY = SGP/SGP4

EPOCH          = 2026-03-13T07:17:40.396128
MEAN_MOTION    = 14.29288390
ECCENTRICITY   = .00014565
INCLINATION    = 98.7772
RA_OF_ASC_NODE = 30.8065
ARG_OF_PERICENTER = 38.7795
MEAN_ANOMALY   = 321.3491

EPHEMERIS_TYPE = 0
CLASSIFICATION_TYPE = U
NORAD_CAT_ID   = 27597
ELEMENT_SET_NO = 999
REV_AT_EPOCH   = 21081
BSTAR          = .16588023E-3
MEAN_MOTION_DOT = .377E-5
MEAN_MOTION_DDOT = 0

CCSDS_OMM_VERS = 2.0
CREATION_DATE  = 
ORIGINATOR     = 

OBJECT_NAME    = H-2A R/B
OBJECT_ID      = 2002-056E
CENTER_NAME    = EARTH
REF_FRAME      = TEME
TIME_SYSTEM    = UTC
MEAN_ELEMENT_THEORY = SGP/SGP4

EPOCH          = 2026-03-13T19:34:59.528064
MEAN_MOTION    = 14.33763913
ECCENTRICITY   = .00707477
INCLINATION    = 98.3207
RA_OF_ASC_NODE = 33.0246
ARG_OF_PERICENTER = 148.4529
MEAN_ANOMALY   = 227.3363

EPHEMERIS_TYPE = 0
CLASSIFICATION_TYPE = U
NORAD_CAT_ID   = 27601
ELEMENT_SET_NO = 999
REV_AT_EPOCH   = 21470
BSTAR          = .12902088E-3
MEAN_MOTION_DOT = .327E-5
MEAN_MOTION_DDOT = 0

CCSDS_OMM_VERS = 2.0
CREATION_DATE  = 
ORIGINATOR     = 

OBJECT_NAME    = CZ-4B R/B
OBJECT_ID      = 2003-049C
CENTER_NAME    = EARTH
REF_FRAME      = TEME
TIME_SYSTEM    = UTC
MEAN_ELEMENT_THEORY = SGP/SGP4

EPOCH          = 2026-03-13T22:07:57.570240
MEAN_MOTION    = 14.55024700
ECCENTRICITY   = .00474222
INCLINATION    = 98.6880
RA_OF_ASC_NODE = 67.9930
ARG_OF_PERICENTER = 217.7404
MEAN_ANOMALY   = 142.0463

EPHEMERIS_TYPE = 0
CLASSIFICATION_TYPE = U
NORAD_CAT_ID   = 28059
ELEMENT_SET_NO = 999
REV_AT_EPOCH   = 18721
BSTAR          = .11299877E-3
MEAN_MOTION_DOT = .442E-5
MEAN_MOTION_DDOT = 0

CCSDS_OMM_VERS = 2.0
CREATION_DATE  = 
ORIGINATOR     = 

OBJECT_NAME    = CZ-2C R/B
OBJECT_ID      = 2004-012C
CENTER_NAME    = EARTH
REF_FRAME      = TEME
TIME_SYSTEM    = UTC
MEAN_ELEMENT_THEORY = SGP/SGP4

EPOCH          = 2026-03-13T03:02:05.447616
MEAN_MOTION    = 15.64944388
ECCENTRICITY   = .00129338
INCLINATION    = 97.7223
RA_OF_ASC_NODE = 137.7453
ARG_OF_PERICENTER = 295.2646
MEAN_ANOMALY   = 64.7272

EPHEMERIS_TYPE = 0
CLASSIFICATION_TYPE = U
NORAD_CAT_ID   = 28222
ELEMENT_SET_NO = 999
REV_AT_EPOCH   = 20481
BSTAR          = .60765345E-3
MEAN_MOTION_DOT = .59904E-3
MEAN_MOTION_DDOT = 0

CCSDS_OMM_VERS = 2.0
CREATION_DATE  = 
ORIGINATOR     = 

OBJECT_NAME    = SL-16 R/B
OBJECT_ID      = 2004-021B
CENTER_NAME    = EARTH
REF_FRAME      = TEME
TIME_SYSTEM    = UTC
MEAN_ELEMENT_THEORY = SGP/SGP4

EPOCH          = 2026-03-13T10:00:21.351456
MEAN_MOTION    = 14.14596418
ECCENTRICITY   = .0004293
INCLINATION    = 70.9996
RA_OF_ASC_NODE = 224.6701
ARG_OF_PERICENTER = 3.8877
MEAN_ANOMALY   = 356.2278

EPHEMERIS_TYPE = 0
CLASSIFICATION_TYPE = U
NORAD_CAT_ID   = 28353
ELEMENT_SET_NO = 999
REV_AT_EPOCH   = 12336
BSTAR          = -.12158589E-3
MEAN_MOTION_DOT = -.281E-5
MEAN_MOTION_DDOT = 0

CCSDS_OMM_VERS = 2.0
CREATION_DATE  = 
ORIGINATOR     = 

OBJECT_NAME    = CZ-4B R/B
OBJECT_ID      = 2004-035C
CENTER_NAME    = EARTH
REF_FRAME      = TEME
TIME_SYSTEM    = UTC
MEAN_ELEMENT_THEORY = SGP/SGP4

EPOCH          = 2026-03-13T20:03:16.453440
MEAN_MOTION    = 15.29142114
ECCENTRICITY   = .00305858
INCLINATION    = 97.3501
RA_OF_ASC_NODE = 107.0287
ARG_OF_PERICENTER = 316.1574
MEAN_ANOMALY   = 43.7238

EPHEMERIS_TYPE = 0
CLASSIFICATION_TYPE = U
NORAD_CAT_ID   = 28415
ELEMENT_SET_NO = 999
REV_AT_EPOCH   = 18054
BSTAR          = .33329055E-3
MEAN_MOTION_DOT = .9485E-4
MEAN_MOTION_DDOT = 0

CCSDS_OMM_VERS = 2.0
CREATION_DATE  = 
ORIGINATOR     = 

OBJECT_NAME    = CZ-2C R/B
OBJECT_ID      = 2004-046B
CENTER_NAME    = EARTH
REF_FRAME      = TEME
TIME_SYSTEM    = UTC
MEAN_ELEMENT_THEORY = SGP/SGP4

EPOCH          = 2026-03-13T18:18:27.466560
MEAN_MOTION    = 14.26993658
ECCENTRICITY   = .01401006
INCLINATION    = 98.1981
RA_OF_ASC_NODE = 347.4933
ARG_OF_PERICENTER = 142.4411
MEAN_ANOMALY   = 218.6658

EPHEMERIS_TYPE = 0
CLASSIFICATION_TYPE = U
NORAD_CAT_ID   = 28480
ELEMENT_SET_NO = 999
REV_AT_EPOCH   = 10908
BSTAR          = .69491911E-4
MEAN_MOTION_DOT = .147E-5
MEAN_MOTION_DDOT = 0

CCSDS_OMM_VERS = 2.0
CREATION_DATE  = 
ORIGINATOR     = 

OBJECT_NAME    = ARIANE 5 R/B
OBJECT_ID      = 2004-049H
CENTER_NAME    = EARTH
REF_FRAME      = TEME
TIME_SYSTEM    = UTC
MEAN_ELEMENT_THEORY = SGP/SGP4

EPOCH          = 2026-03-13T22:39:40.113792
MEAN_MOTION    = 14.85274516
ECCENTRICITY   = .0083636
INCLINATION    = 98.2633
RA_OF_ASC_NODE = 241.5606
ARG_OF_PERICENTER = 338.0937
MEAN_ANOMALY   = 21.6708

EPHEMERIS_TYPE = 0
CLASSIFICATION_TYPE = U
NORAD_CAT_ID   = 28499
ELEMENT_SET_NO = 999
REV_AT_EPOCH   = 14642
BSTAR          = .10094387E-3
MEAN_MOTION_DOT = .857E-5
MEAN_MOTION_DDOT = 0

CCSDS_OMM_VERS = 2.0
CREATION_DATE  = 
ORIGINATOR     = 

OBJECT_NAME    = CZ-2D R/B
OBJECT_ID      = 2005-024B
CENTER_NAME    = EARTH
REF_FRAME      = TEME
TIME_SYSTEM    = UTC
MEAN_ELEMENT_THEORY = SGP/SGP4

EPOCH          = 2026-03-13T22:36:28.168416
MEAN_MOTION    = 15.60554268
ECCENTRICITY   = .0005157
INCLINATION    = 97.3594
RA_OF_ASC_NODE = 88.2454
ARG_OF_PERICENTER = 35.8223
MEAN_ANOMALY   = 324.3379

EPHEMERIS_TYPE = 0
CLASSIFICATION_TYPE = U
NORAD_CAT_ID   = 28738
ELEMENT_SET_NO = 999
REV_AT_EPOCH   = 14044
BSTAR          = .58699674E-3
MEAN_MOTION_DOT = .48547E-3
MEAN_MOTION_DDOT = 0

CCSDS_OMM_VERS = 2.0
CREATION_DATE  = 
ORIGINATOR     = 

OBJECT_NAME    = ALOS (DAICHI)
OBJECT_ID      = 2006-002A
CENTER_NAME    = EARTH
REF_FRAME      = TEME
TIME_SYSTEM    = UTC
MEAN_ELEMENT_THEORY = SGP/SGP4

EPOCH          = 2026-03-13T07:33:54.978624
MEAN_MOTION    = 14.69823673
ECCENTRICITY   = .00008104
INCLINATION    = 98.1221
RA_OF_ASC_NODE = 28.2525
ARG_OF_PERICENTER = 63.5750
MEAN_ANOMALY   = 296.5539

EPHEMERIS_TYPE = 0
CLASSIFICATION_TYPE = U
NORAD_CAT_ID   = 28931
ELEMENT_SET_NO = 999
REV_AT_EPOCH   = 7401
BSTAR          = .2885247E-3
MEAN_MOTION_DOT = .1674E-4
MEAN_MOTION_DDOT = 0

